[
    {
        "Altitude(m)": 557738.5758189479,
        "Argument of Periapsis(deg)": 0.033114955553567506,
        "Eccentricity": 0.0,
        "Inclination(deg)": 53.0,
        "Latitude(deg)": 43.665178243120636,
        "Longitude(deg)": -138.3197761337985,
        "Mean Anomaly(deg)": 59.54896433788792,
        "RAAN(deg)": 279.95071684264,
        "Satellite Name": "Starlink Shell 1 1232",
        "Satellite Number": 1232,
        "Semi-Major Axis(m)": 6931778.249405717,
        "Time(s)": 950
    },
    {
        "Altitude(m)": 557816.3378595281,
        "Argument of Periapsis(deg)": 0.03346353403307874,
        "Eccentricity": 0.0,
        "Inclination(deg)": 53.0,
        "Latitude(deg)": 44.013441119006686,
        "Longitude(deg)": -137.63948193203476,
        "Mean Anomaly(deg)": 60.175795541444664,
        "RAAN(deg)": 279.9501980725626,
        "Satellite Name": "Starlink Shell 1 1232",
        "Satellite Number": 1232,
        "Semi-Major Axis(m)": 6931778.249405717,
        "Time(s)": 960
    },
    {
        "Altitude(m)": 557893.3069341243,
        "Argument of Periapsis(deg)": 0.03381211251258998,
        "Eccentricity": 0.0,
        "Inclination(deg)": 53.0,
        "Latitude(deg)": 44.35707342481721,
        "Longitude(deg)": -136.95075750733542,
        "Mean Anomaly(deg)": 60.80262674500136,
        "RAAN(deg)": 279.94967930248515,
        "Satellite Name": "Starlink Shell 1 1232",
        "Satellite Number": 1232,
        "Semi-Major Axis(m)": 6931778.249405717,
        "Time(s)": 970
    },
    {
        "Altitude(m)": 557969.4346984288,
        "Argument of Periapsis(deg)": 0.034160690992101214,
        "Eccentricity": 0.0,
        "Inclination(deg)": 53.0,
        "Latitude(deg)": 44.695966111651416,
        "Longitude(deg)": -136.25351816534942,
        "Mean Anomaly(deg)": 61.42945794855805,
        "RAAN(deg)": 279.94916053240763,
        "Satellite Name": "Starlink Shell 1 1232",
        "Satellite Number": 1232,
        "Semi-Major Axis(m)": 6931778.249405717,
        "Time(s)": 980
    },
    {
        "Altitude(m)": 558044.6734434622,
        "Argument of Periapsis(deg)": 0.034509269471612446,
        "Eccentricity": 0.0,
        "Inclination(deg)": 53.0,
        "Latitude(deg)": 45.03000844961857,
        "Longitude(deg)": -135.54768392825892,
        "Mean Anomaly(deg)": 62.0562891521148,
        "RAAN(deg)": 279.94864176233017,
        "Satellite Name": "Starlink Shell 1 1232",
        "Satellite Number": 1232,
        "Semi-Major Axis(m)": 6931778.249405717,
        "Time(s)": 990
    }
]